OBJECT_NAME,OBJECT_ID,EPOCH,MEAN_MOTION,ECCENTRICITY,INCLINATION,RA_OF_ASC_NODE,ARG_OF_PERICENTER,MEAN_ANOMALY,EPHEMERIS_TYPE,CLASSIFICATION_TYPE,NORAD_CAT_ID,ELEMENT_SET_NO,REV_AT_EPOCH,BSTAR,MEAN_MOTION_DOT,MEAN_MOTION_DDOT
FENGYUN 3D,2017-072A,2026-06-29T13:13:18.782976,14.19742690,.0002218,99.0125,155.1967,41.8916,318.2429,0,U,43010,999,44674,.16945E-3,.312E-5,0
NOAA 20 (JPSS-1),2017-073A,2026-06-29T11:27:28.598112,14.19513872,.0000739,98.7773,119.8308,135.2363,224.8873,0,U,43013,999,44621,.40173E-4,.4E-6,0
GOES 17,2018-022A,2026-06-29T11:59:14.906112,1.00272303,.0000733,0.9671,85.5156,28.4686,253.9068,0,U,43226,999,3054,0,-.172E-5,0
SENTINEL-3B,2018-039A,2026-06-28T19:57:01.908576,14.26737846,.00007876,98.6245,247.1963,110.7212,249.4053,0,U,43437,999,42578,.61078967E-4,.104E-5,0
FENGYUN 2H,2018-050A,2026-06-29T12:47:23.405856,1.00269756,.0001743,3.0625,78.9361,121.2726,348.5723,0,U,43491,999,2956,0,-.121E-5,0
METOP-C,2018-087A,2026-06-29T10:56:57.122880,14.21515267,.0002091,98.6640,239.8353,114.2135,245.9262,0,U,43689,999,39657,.66951E-4,.103E-5,0
GEO-KOMPSAT-2A,2018-100A,2026-06-29T13:12:38.727072,1.00271412,.0002392,0.0426,125.2771,326.1025,152.6796,0,U,43823,999,2775,0,-.333E-5,0
METEOR-M2 2,2019-038A,2026-06-29T12:54:20.455200,14.24368692,.0001586,98.9143,168.0055,30.0884,330.0385,0,U,44387,999,36305,-.77087E-5,-.64E-6,0
ARKTIKA-M 1,2021-016A,2026-06-28T22:55:13.824768,2.00618530,.7292202,63.2510,55.9263,269.9887,14.5514,0,U,47719,999,3902,0,-.301E-5,0
FENGYUN 3E,2021-062A,2026-06-29T12:48:06.209280,14.19905599,.000277,98.7489,183.8035,65.4278,294.7187,0,U,49008,999,25833,.2323E-4,.5E-7,0
GOES 18,2022-021A,2026-06-29T11:41:38.747328,1.00271171,.0000521,0.0211,186.7795,295.8146,193.3879,0,U,51850,999,671,0,.108E-5,0
NOAA 21 (JPSS-2),2022-150A,2026-06-29T12:14:21.053760,14.19538631,.0002334,98.7060,119.0922,132.5813,227.5560,0,U,54234,999,18829,.4655E-4,.55E-6,0
METEOSAT-12 (MTG-I1),2022-170C,2026-06-29T08:59:18.172032,1.00275888,.0003682,0.7516,24.8778,72.8347,314.2767,0,U,54743,999,1310,0,.4E-7,0
TIANMU-1 03,2023-039A,2026-06-29T12:43:54.355872,15.47626208,.0003843,97.5227,354.9858,69.0286,291.1374,0,U,55973,999,18274,.26516E-3,.13592E-3,0
TIANMU-1 04,2023-039B,2026-06-29T12:21:49.714272,15.48238505,.0004235,97.5169,354.1241,62.3052,297.8627,0,U,55974,999,18275,.27328E-3,.14315E-3,0
TIANMU-1 05,2023-039C,2026-06-29T12:17:04.426656,15.47552358,.0003824,97.5213,354.5764,84.9164,275.2522,0,U,55975,999,18272,.27076E-3,.13846E-3,0
TIANMU-1 06,2023-039D,2026-06-29T12:27:48.758976,15.48138894,.0004049,97.5220,355.2325,80.0651,280.1056,0,U,55976,999,18275,.27048E-3,.14118E-3,0
FENGYUN 3G,2023-055A,2026-06-29T12:36:43.518816,15.53164390,.0007232,49.9932,282.4238,348.0544,12.0251,0,U,56232,999,18192,.32305E-3,.20279E-3,0
METEOR-M2 3,2023-091A,2026-06-29T12:50:14.860608,14.24047785,.0004905,98.6077,235.2603,125.6037,234.5600,0,U,57166,999,15627,.23912E-4,.12E-6,0
TIANMU-1 07,2023-101A,2026-06-29T12:39:37.067904,15.29947156,.0004313,97.2587,230.9128,96.3882,263.7850,0,U,57399,999,16353,.20316E-3,.5817E-4,0
TIANMU-1 08,2023-101B,2026-06-29T11:51:32.013792,15.29951229,.000561,97.2577,230.6490,85.3873,274.8008,0,U,57400,999,16352,.21113E-3,.605E-4,0
TIANMU-1 09,2023-101C,2026-06-29T11:27:16.332768,15.29986487,.0004897,97.2534,230.0419,99.6229,260.5565,0,U,57401,999,16352,.2153E-3,.6177E-4,0
TIANMU-1 10,2023-101D,2026-06-29T12:15:11.117376,15.29959414,.0006422,97.2614,231.1375,94.7832,265.4143,0,U,57402,999,16352,.2164E-3,.6205E-4,0
FENGYUN 3F,2023-111A,2026-06-29T12:24:31.521600,14.19941046,.0001507,98.6833,250.2959,84.2062,275.9286,0,U,57490,999,15061,.43289E-4,.49E-6,0
ARKTIKA-M 2,2023-198A,2026-06-26T05:35:41.970624,2.00610703,.69048743,63.2200,153.3551,267.3978,18.7558,0,U,58584,999,1850,0,.156E-5,0
TIANMU-1 11,2023-205A,2026-06-29T12:05:26.498688,15.27118380,.0007515,97.3439,201.8677,331.3204,28.7620,0,U,58645,999,13940,.19949E-3,.5236E-4,0
TIANMU-1 12,2023-205B,2026-06-29T12:57:43.614432,15.27016694,.0005465,97.3428,201.6564,310.5827,49.4936,0,U,58646,999,13939,.20948E-3,.5483E-4,0
TIANMU-1 13,2023-205C,2026-06-29T12:11:12.762240,15.26938623,.0004987,97.3455,201.8993,285.6543,74.4145,0,U,58647,999,13938,.1998E-3,.5213E-4,0
TIANMU-1 14,2023-205D,2026-06-29T13:23:45.317760,15.26983929,.0005816,97.3392,201.1210,292.0266,68.0355,0,U,58648,999,13939,.2022E-3,.5284E-4,0
TIANMU-1 19,2023-208A,2026-06-29T12:05:30.618240,15.31754345,.0003506,97.4518,296.8677,267.3085,92.7755,0,U,58660,999,13921,.24083E-3,.7306E-4,0
TIANMU-1 20,2023-208B,2026-06-29T11:12:10.279296,15.32943584,.0005563,97.4460,297.4786,279.6372,80.4242,0,U,58661,999,13930,.2464E-3,.7764E-4,0
