FENGYUN 3D              
1 43010U 17072A   26180.55091184  .00000312  00000+0  16945-3 0  9998
2 43010  99.0125 155.1967 0002218  41.8916 318.2429 14.19742690446749
NOAA 20 (JPSS-1)        
1 43013U 17073A   26180.47741433  .00000040  00000+0  40173-4 0  9991
2 43013  98.7773 119.8308 0000739 135.2363 224.8873 14.19513872446218
GOES 17                 
1 43226U 18022A   26180.49947808 -.00000172  00000+0  00000+0 0  9995
2 43226   0.9671  85.5156 0000733  28.4686 253.9068  1.00272303 30542
SENTINEL-3B             
1 43437U 18039A   26179.83127209  .00000104  00000+0  61079-4 0  9990
2 43437  98.6245 247.1963 0000787 110.7212 249.4053 14.26737846425786
FENGYUN 2H              
1 43491U 18050A   26180.53290979 -.00000121  00000+0  00000+0 0  9999
2 43491   3.0625  78.9361 0001743 121.2726 348.5723  1.00269756 29569
METOP-C                 
1 43689U 18087A   26180.45621670  .00000103  00000+0  66951-4 0  9996
2 43689  98.6640 239.8353 0002091 114.2135 245.9262 14.21515267396571
GEO-KOMPSAT-2A          
1 43823U 18100A   26180.55044823 -.00000333  00000+0  00000+0 0  9996
2 43823   0.0426 125.2771 0002392 326.1025 152.6796  1.00271412 27759
METEOR-M2 2             
1 44387U 19038A   26180.53773675 -.00000064  00000+0 -77087-5 0  9992
2 44387  98.9143 168.0055 0001586  30.0884 330.0385 14.24368692363054
ARKTIKA-M 1             
1 47719U 21016A   26179.95502112 -.00000301  00000+0  00000+0 0  9991
2 47719  63.2510  55.9263 7292202 269.9887  14.5514  2.00618530 39029
FENGYUN 3E              
1 49008U 21062A   26180.53340520  .00000005  00000+0  23230-4 0  9999
2 49008  98.7489 183.8035 0002770  65.4278 294.7187 14.19905599258335
GOES 18                 
1 51850U 22021A   26180.48725402  .00000108  00000+0  00000+0 0  9992
2 51850   0.0211 186.7795 0000521 295.8146 193.3879  1.00271171  6715
NOAA 21 (JPSS-2)        
1 54234U 22150A   26180.50996590  .00000055  00000+0  46550-4 0  9991
2 54234  98.7060 119.0922 0002334 132.5813 227.5560 14.19538631188295
METEOSAT-12 (MTG-I1)    
1 54743U 22170C   26180.37451588  .00000004  00000+0  00000+0 0  9995
2 54743   0.7516  24.8778 0003682  72.8347 314.2767  1.00275888 13104
TIANMU-1 03             
1 55973U 23039A   26180.53049023  .00013592  00000+0  26516-3 0  9991
2 55973  97.5227 354.9858 0003843  69.0286 291.1374 15.47626208182744
TIANMU-1 04             
1 55974U 23039B   26180.51515873  .00014315  00000+0  27328-3 0  9997
2 55974  97.5169 354.1241 0004235  62.3052 297.8627 15.48238505182756
TIANMU-1 05             
1 55975U 23039C   26180.51185679  .00013846  00000+0  27076-3 0  9993
2 55975  97.5213 354.5764 0003824  84.9164 275.2522 15.47552358182723
TIANMU-1 06             
1 55976U 23039D   26180.51931434  .00014118  00000+0  27048-3 0  9994
2 55976  97.5220 355.2325 0004049  80.0651 280.1056 15.48138894182757
FENGYUN 3G              
1 56232U 23055A   26180.52550369  .00020279  00000+0  32305-3 0  9990
2 56232  49.9932 282.4238 0007232 348.0544  12.0251 15.53164390181926
METEOR-M2 3             
1 57166U 23091A   26180.53489422  .00000012  00000+0  23912-4 0  9997
2 57166  98.6077 235.2603 0004905 125.6037 234.5600 14.24047785156270
TIANMU-1 07             
1 57399U 23101A   26180.52751236  .00005817  00000+0  20316-3 0  9993
2 57399  97.2587 230.9128 0004313  96.3882 263.7850 15.29947156163533
TIANMU-1 08             
1 57400U 23101B   26180.49412053  .00006050  00000+0  21113-3 0  9999
2 57400  97.2577 230.6490 0005610  85.3873 274.8008 15.29951229163526
TIANMU-1 09             
1 57401U 23101C   26180.47727237  .00006177  00000+0  21530-3 0  9994
2 57401  97.2534 230.0419 0004897  99.6229 260.5565 15.29986487163528
TIANMU-1 10             
1 57402U 23101D   26180.51054534  .00006205  00000+0  21640-3 0  9997
2 57402  97.2614 231.1375 0006422  94.7832 265.4143 15.29959414163529
FENGYUN 3F              
1 57490U 23111A   26180.51703150  .00000049  00000+0  43289-4 0  9994
2 57490  98.6833 250.2959 0001507  84.2062 275.9286 14.19941046150612
ARKTIKA-M 2             
1 58584U 23198A   26177.23312466  .00000156  00000+0  00000+0 0  9993
2 58584  63.2200 153.3551 6904874 267.3978  18.7558  2.00610703 18505
TIANMU-1 11             
1 58645U 23205A   26180.50377892  .00005236  00000+0  19949-3 0  9998
2 58645  97.3439 201.8677 0007515 331.3204  28.7620 15.27118380139408
TIANMU-1 12             
1 58646U 23205B   26180.54008813  .00005483  00000+0  20948-3 0  9992
2 58646  97.3428 201.6564 0005465 310.5827  49.4936 15.27016694139395
TIANMU-1 13             
1 58647U 23205C   26180.50778660  .00005213  00000+0  19980-3 0  9998
2 58647  97.3455 201.8993 0004987 285.6543  74.4145 15.26938623139382
TIANMU-1 14             
1 58648U 23205D   26180.55816340  .00005284  00000+0  20220-3 0  9999
2 58648  97.3392 201.1210 0005816 292.0266  68.0355 15.26983929139396
TIANMU-1 19             
1 58660U 23208A   26180.50382660  .00007306  00000+0  24083-3 0  9992
2 58660  97.4518 296.8677 0003506 267.3085  92.7755 15.31754345139210
TIANMU-1 20             
1 58661U 23208B   26180.46678564  .00007764  00000+0  24640-3 0  9996
2 58661  97.4460 297.4786 0005563 279.6372  80.4242 15.32943584139306
